[
    {
        "Altitude(m)": 717864.5409786778,
        "Argument of Periapsis(deg)": 0.010251109067964361,
        "Eccentricity": 0.0,
        "Inclination(deg)": 45.0,
        "Latitude(deg)": -45.1115927710962,
        "Longitude(deg)": 87.42196189679326,
        "Mean Anomaly(deg)": -87.80190501726725,
        "RAAN(deg)": 274.99032325268763,
        "Satellite Name": "Constellation 1 1226",
        "Satellite Number": 1226,
        "Semi-Major Axis(m)": 7083131.272910544,
        "Time(s)": 171
    },
    {
        "Altitude(m)": 717863.5613802765,
        "Argument of Periapsis(deg)": 0.010311057074209765,
        "Eccentricity": 0.0,
        "Inclination(deg)": 45.0,
        "Latitude(deg)": -45.1092303198204,
        "Longitude(deg)": 87.503360470059,
        "Mean Anomaly(deg)": -87.74120387701741,
        "RAAN(deg)": 274.99026666352205,
        "Satellite Name": "Constellation 1 1226",
        "Satellite Number": 1226,
        "Semi-Major Axis(m)": 7083131.272910544,
        "Time(s)": 172
    },
    {
        "Altitude(m)": 717862.5554433322,
        "Argument of Periapsis(deg)": 0.010371005080455171,
        "Eccentricity": 0.0,
        "Inclination(deg)": 45.0,
        "Latitude(deg)": -45.10680388057434,
        "Longitude(deg)": 87.58475190915175,
        "Mean Anomaly(deg)": -87.68050273676745,
        "RAAN(deg)": 274.9902100743565,
        "Satellite Name": "Constellation 1 1226",
        "Satellite Number": 1226,
        "Semi-Major Axis(m)": 7083131.272910544,
        "Time(s)": 173
    },
    {
        "Altitude(m)": 717861.5231715358,
        "Argument of Periapsis(deg)": 0.010430953086700577,
        "Eccentricity": 0.0,
        "Inclination(deg)": 45.0,
        "Latitude(deg)": -45.10431346406455,
        "Longitude(deg)": 87.66613602467554,
        "Mean Anomaly(deg)": -87.61980159651753,
        "RAAN(deg)": 274.9901534851909,
        "Satellite Name": "Constellation 1 1226",
        "Satellite Number": 1226,
        "Semi-Major Axis(m)": 7083131.272910544,
        "Time(s)": 174
    },
    {
        "Altitude(m)": 717860.4645686859,
        "Argument of Periapsis(deg)": 0.010490901092945983,
        "Eccentricity": 0.0,
        "Inclination(deg)": 45.0,
        "Latitude(deg)": -45.101759081277585,
        "Longitude(deg)": 87.74751262736521,
        "Mean Anomaly(deg)": -87.5591004562677,
        "RAAN(deg)": 274.9900968960253,
        "Satellite Name": "Constellation 1 1226",
        "Satellite Number": 1226,
        "Semi-Major Axis(m)": 7083131.272910544,
        "Time(s)": 175
    },
    {
        "Altitude(m)": 717859.379638667,
        "Argument of Periapsis(deg)": 0.010550849099191389,
        "Eccentricity": 0.0,
        "Inclination(deg)": 45.0,
        "Latitude(deg)": -45.09914074347967,
        "Longitude(deg)": 87.8288815280893,
        "Mean Anomaly(deg)": -87.49839931601774,
        "RAAN(deg)": 274.9900403068598,
        "Satellite Name": "Constellation 1 1226",
        "Satellite Number": 1226,
        "Semi-Major Axis(m)": 7083131.272910544,
        "Time(s)": 176
    },
    {
        "Altitude(m)": 717858.2683854755,
        "Argument of Periapsis(deg)": 0.010610797105436795,
        "Eccentricity": 0.0,
        "Inclination(deg)": 45.0,
        "Latitude(deg)": -45.09645846221651,
        "Longitude(deg)": 87.91024253785297,
        "Mean Anomaly(deg)": -87.43769817576779,
        "RAAN(deg)": 274.9899837176942,
        "Satellite Name": "Constellation 1 1226",
        "Satellite Number": 1226,
        "Semi-Major Axis(m)": 7083131.272910544,
        "Time(s)": 177
    },
    {
        "Altitude(m)": 717857.1308131851,
        "Argument of Periapsis(deg)": 0.0106707451116822,
        "Eccentricity": 0.0,
        "Inclination(deg)": 45.0,
        "Latitude(deg)": -45.093712249313114,
        "Longitude(deg)": 87.99159529970512,
        "Mean Anomaly(deg)": -87.37699703551793,
        "RAAN(deg)": 274.9899271285287,
        "Satellite Name": "Constellation 1 1226",
        "Satellite Number": 1226,
        "Semi-Major Axis(m)": 7083131.272910544,
        "Time(s)": 178
    },
    {
        "Altitude(m)": 717855.9669259896,
        "Argument of Periapsis(deg)": 0.010730693117927606,
        "Eccentricity": 0.0,
        "Inclination(deg)": 45.0,
        "Latitude(deg)": -45.09090211687331,
        "Longitude(deg)": 88.07293996112884,
        "Mean Anomaly(deg)": -87.31629589526806,
        "RAAN(deg)": 274.98987053936304,
        "Satellite Name": "Constellation 1 1226",
        "Satellite Number": 1226,
        "Semi-Major Axis(m)": 7083131.272910544,
        "Time(s)": 179
    },
    {
        "Altitude(m)": 717854.7767281587,
        "Argument of Periapsis(deg)": 0.01079064112417301,
        "Eccentricity": 0.0,
        "Inclination(deg)": 45.0,
        "Latitude(deg)": -45.08802807727985,
        "Longitude(deg)": 88.1542761654637,
        "Mean Anomaly(deg)": -87.2555947550181,
        "RAAN(deg)": 274.98981395019746,
        "Satellite Name": "Constellation 1 1226",
        "Satellite Number": 1226,
        "Semi-Major Axis(m)": 7083131.272910544,
        "Time(s)": 180
    },
    {
        "Altitude(m)": 717853.5602240755,
        "Argument of Periapsis(deg)": 0.010850589130418416,
        "Eccentricity": 0.0,
        "Inclination(deg)": 45.0,
        "Latitude(deg)": -45.08509014319389,
        "Longitude(deg)": 88.23560372429604,
        "Mean Anomaly(deg)": -87.19489361476825,
        "RAAN(deg)": 274.98975736103193,
        "Satellite Name": "Constellation 1 1226",
        "Satellite Number": 1226,
        "Semi-Major Axis(m)": 7083131.272910544,
        "Time(s)": 181
    },
    {
        "Altitude(m)": 717852.3174182114,
        "Argument of Periapsis(deg)": 0.01091053713666382,
        "Eccentricity": 0.0,
        "Inclination(deg)": 45.0,
        "Latitude(deg)": -45.08208832755473,
        "Longitude(deg)": 88.31692244936619,
        "Mean Anomaly(deg)": -87.13419247451839,
        "RAAN(deg)": 274.98970077186635,
        "Satellite Name": "Constellation 1 1226",
        "Satellite Number": 1226,
        "Semi-Major Axis(m)": 7083131.272910544,
        "Time(s)": 182
    },
    {
        "Altitude(m)": 717851.0483151346,
        "Argument of Periapsis(deg)": 0.010970485142909228,
        "Eccentricity": 0.0,
        "Inclination(deg)": 45.0,
        "Latitude(deg)": -45.079022643579684,
        "Longitude(deg)": 88.39823215257111,
        "Mean Anomaly(deg)": -87.07349133426843,
        "RAAN(deg)": 274.98964418270083,
        "Satellite Name": "Constellation 1 1226",
        "Satellite Number": 1226,
        "Semi-Major Axis(m)": 7083131.272910544,
        "Time(s)": 183
    },
    {
        "Altitude(m)": 717849.7529195177,
        "Argument of Periapsis(deg)": 0.011030433149154634,
        "Eccentricity": 0.0,
        "Inclination(deg)": 45.0,
        "Latitude(deg)": -45.07589310476369,
        "Longitude(deg)": 88.4795326459676,
        "Mean Anomaly(deg)": -87.01279019401854,
        "RAAN(deg)": 274.9895875935352,
        "Satellite Name": "Constellation 1 1226",
        "Satellite Number": 1226,
        "Semi-Major Axis(m)": 7083131.272910544,
        "Time(s)": 184
    },
    {
        "Altitude(m)": 717848.4312361261,
        "Argument of Periapsis(deg)": 0.01109038115540004,
        "Eccentricity": 0.0,
        "Inclination(deg)": 45.0,
        "Latitude(deg)": -45.07269972487912,
        "Longitude(deg)": 88.56082357367927,
        "Mean Anomaly(deg)": -86.95208905376867,
        "RAAN(deg)": 274.9895310043696,
        "Satellite Name": "Constellation 1 1226",
        "Satellite Number": 1226,
        "Semi-Major Axis(m)": 7083131.272910544,
        "Time(s)": 185
    },
    {
        "Altitude(m)": 717847.0832698182,
        "Argument of Periapsis(deg)": 0.011150329161645444,
        "Eccentricity": 0.0,
        "Inclination(deg)": 45.0,
        "Latitude(deg)": -45.06944251797522,
        "Longitude(deg)": 88.64210508428692,
        "Mean Anomaly(deg)": -86.89138791351874,
        "RAAN(deg)": 274.9894744152041,
        "Satellite Name": "Constellation 1 1226",
        "Satellite Number": 1226,
        "Semi-Major Axis(m)": 7083131.272910544,
        "Time(s)": 186
    },
    {
        "Altitude(m)": 717845.7090255538,
        "Argument of Periapsis(deg)": 0.01121027716789085,
        "Eccentricity": 0.0,
        "Inclination(deg)": 45.0,
        "Latitude(deg)": -45.066121498378294,
        "Longitude(deg)": 88.72337682225024,
        "Mean Anomaly(deg)": -86.83068677326888,
        "RAAN(deg)": 274.9894178260385,
        "Satellite Name": "Constellation 1 1226",
        "Satellite Number": 1226,
        "Semi-Major Axis(m)": 7083131.272910544,
        "Time(s)": 187
    },
    {
        "Altitude(m)": 717844.3085083942,
        "Argument of Periapsis(deg)": 0.011270225174136258,
        "Eccentricity": 0.0,
        "Inclination(deg)": 45.0,
        "Latitude(deg)": -45.062736680690925,
        "Longitude(deg)": 88.8046386002995,
        "Mean Anomaly(deg)": -86.76998563301905,
        "RAAN(deg)": 274.9893612368729,
        "Satellite Name": "Constellation 1 1226",
        "Satellite Number": 1226,
        "Semi-Major Axis(m)": 7083131.272910544,
        "Time(s)": 188
    },
    {
        "Altitude(m)": 717842.8817234844,
        "Argument of Periapsis(deg)": 0.011330173180381662,
        "Eccentricity": 0.0,
        "Inclination(deg)": 45.0,
        "Latitude(deg)": -45.059288079792005,
        "Longitude(deg)": 88.88589023134111,
        "Mean Anomaly(deg)": -86.70928449276909,
        "RAAN(deg)": 274.9893046477074,
        "Satellite Name": "Constellation 1 1226",
        "Satellite Number": 1226,
        "Semi-Major Axis(m)": 7083131.272910544,
        "Time(s)": 189
    }
]